1 58616U 00000    24039.35670382  .00000000  00000-0 +6.4570-04 0  9999
2 58616 140.0137 181.5121 0159962  21.3015 339.4396 15.87166616  451
